{
  "norad_id": 61907,
  "name": "2024-205P",
  "history": [
    {
      "epoch": "2026-03-27T19:19:56.815680Z",
      "apogee_km": 524.0575563351304,
      "perigee_km": 507.7039810253327,
      "latitude_deg": 7.643951143767818e-05,
      "longitude_deg": 45.80981230375103,
      "height_km": 510.96527824497247,
      "semi_major_axis_km": 6894.017768680232,
      "eccentricity": 0.00118607,
      "inclination_deg": 97.4177,
      "raan_deg": 161.0316,
      "arg_perigee_deg": 348.1461,
      "mean_anomaly_deg": 11.9492,
      "mean_motion_rev_day": 15.16680714
    }
  ]
}