{"fetched_at":"2026-03-28T16:33:49Z","count":6709,"tles":[{"name":"2024-205P","line1":"1 61907U 24205P   26086.80551870  .00003220  00000+0  16761-3 0  9992","line2":"2 61907  97.4177 161.0316 0011860 348.1461  11.9492 15.16680714 75996","category":"Other"}]}